[{"OBJECT_NAME":"SL-14 R/B","OBJECT_ID":"1986-006B","EPOCH":"2026-04-26T18:33:22.101408","MEAN_MOTION":14.86892993,"ECCENTRICITY":0.0077867,"INCLINATION":82.5293,"RA_OF_ASC_NODE":214.486,"ARG_OF_PERICENTER":112.9411,"MEAN_ANOMALY":248.0048,"EPHEMERIS_TYPE":0,"CLASSIFICATION_TYPE":"U","NORAD_CAT_ID":16496,"ELEMENT_SET_NO":999,"REV_AT_EPOCH":15635,"BSTAR":7.7296e-5,"MEAN_MOTION_DOT":7.58e-6,"MEAN_MOTION_DDOT":0},{"OBJECT_NAME":"COSMOS 1743","OBJECT_ID":"1986-034A","EPOCH":"2026-04-26T19:04:33.129696","MEAN_MOTION":15.62725575,"ECCENTRICITY":0.0007509,"INCLINATION":82.5325,"RA_OF_ASC_NODE":23.1861,"ARG_OF_PERICENTER":101.735,"MEAN_ANOMALY":258.4751,"EPHEMERIS_TYPE":0,"CLASSIFICATION_TYPE":"U","NORAD_CAT_ID":16719,"ELEMENT_SET_NO":999,"REV_AT_EPOCH":18775,"BSTAR":0.00059278,"MEAN_MOTION_DOT":0.00053496,"MEAN_MOTION_DDOT":0},{"OBJECT_NAME":"SL-14 R/B","OBJECT_ID":"1986-046B","EPOCH":"2026-04-26T19:56:12.526656","MEAN_MOTION":14.85635163,"ECCENTRICITY":0.0024613,"INCLINATION":82.4846,"RA_OF_ASC_NODE":34.696,"ARG_OF_PERICENTER":70.1969,"MEAN_ANOMALY":290.1897,"EPHEMERIS_TYPE":0,"CLASSIFICATION_TYPE":"U","NORAD_CAT_ID":16792,"ELEMENT_SET_NO":999,"REV_AT_EPOCH":13355,"BSTAR":4.9125e-5,"MEAN_MOTION_DOT":4.52e-6,"MEAN_MOTION_DDOT":0},{"OBJECT_NAME":"SL-14 R/B","OBJECT_ID":"1986-055B","EPOCH":"2026-04-26T15:26:36.733344","MEAN_MOTION":14.85683613,"ECCENTRICITY":0.001911,"INCLINATION":82.5187,"RA_OF_ASC_NODE":81.5846,"ARG_OF_PERICENTER":168.7588,"MEAN_ANOMALY":4.451,"EPHEMERIS_TYPE":0,"CLASSIFICATION_TYPE":"U","NORAD_CAT_ID":16882,"ELEMENT_SET_NO":999,"REV_AT_EPOCH":12648,"BSTAR":5.3903e-5,"MEAN_MOTION_DOT":4.93e-6,"MEAN_MOTION_DDOT":0},{"OBJECT_NAME":"AJISAI (EGS)","OBJECT_ID":"1986-061A","EPOCH":"2026-04-26T19:59:07.492704","MEAN_MOTION":12.44515984,"ECCENTRICITY":0.0011425,"INCLINATION":50.0098,"RA_OF_ASC_NODE":305.3106,"ARG_OF_PERICENTER":50.4483,"MEAN_ANOMALY":78.8564,"EPHEMERIS_TYPE":0,"CLASSIFICATION_TYPE":"U","NORAD_CAT_ID":16908,"ELEMENT_SET_NO":999,"REV_AT_EPOCH":47399,"BSTAR":0.00010785,"MEAN_MOTION_DOT":-8.2e-7,"MEAN_MOTION_DDOT":0},{"OBJECT_NAME":"SL-14 R/B","OBJECT_ID":"1987-024B","EPOCH":"2026-04-26T20:19:07.029696","MEAN_MOTION":14.86176151,"ECCENTRICITY":0.0019809,"INCLINATION":82.5299,"RA_OF_ASC_NODE":47.4977,"ARG_OF_PERICENTER":100.3061,"MEAN_ANOMALY":260.039,"EPHEMERIS_TYPE":0,"CLASSIFICATION_TYPE":"U","NORAD_CAT_ID":17567,"ELEMENT_SET_NO":999,"REV_AT_EPOCH":9528,"BSTAR":4.7948e-5,"MEAN_MOTION_DOT":4.47e-6,"MEAN_MOTION_DDOT":0},{"OBJECT_NAME":"COSMOS 1833","OBJECT_ID":"1987-027A","EPOCH":"2026-04-26T17:08:45.623616","MEAN_MOTION":14.13033586,"ECCENTRICITY":0.0022404,"INCLINATION":70.9163,"RA_OF_ASC_NODE":225.0687,"ARG_OF_PERICENTER":140.053,"MEAN_ANOMALY":220.2244,"EPHEMERIS_TYPE":0,"CLASSIFICATION_TYPE":"U","NORAD_CAT_ID":17589,"ELEMENT_SET_NO":999,"REV_AT_EPOCH":1710,"BSTAR":-8.4891e-5,"MEAN_MOTION_DOT":-2.07e-6,"MEAN_MOTION_DDOT":0},{"OBJECT_NAME":"SL-16 R/B","OBJECT_ID":"1987-027B","EPOCH":"2026-04-26T14:51:27.885600","MEAN_MOTION":14.17171527,"ECCENTRICITY":0.0003677,"INCLINATION":71.0025,"RA_OF_ASC_NODE":175.496,"ARG_OF_PERICENTER":24.5511,"MEAN_ANOMALY":335.5787,"EPHEMERIS_TYPE":0,"CLASSIFICATION_TYPE":"U","NORAD_CAT_ID":17590,"ELEMENT_SET_NO":999,"REV_AT_EPOCH":2213,"BSTAR":0.00012948,"MEAN_MOTION_DOT":2.13e-6,"MEAN_MOTION_DDOT":0},{"OBJECT_NAME":"SL-14 R/B","OBJECT_ID":"1987-038B","EPOCH":"2026-04-26T19:10:21.918720","MEAN_MOTION":14.8541132,"ECCENTRICITY":0.0019402,"INCLINATION":82.5006,"RA_OF_ASC_NODE":251.4729,"ARG_OF_PERICENTER":10.1913,"MEAN_ANOMALY":349.9692,"EPHEMERIS_TYPE":0,"CLASSIFICATION_TYPE":"U","NORAD_CAT_ID":17912,"ELEMENT_SET_NO":999,"REV_AT_EPOCH":8637,"BSTAR":5.2559e-5,"MEAN_MOTION_DOT":4.78e-6,"MEAN_MOTION_DDOT":0},{"OBJECT_NAME":"COSMOS 1844","OBJECT_ID":"1987-041A","EPOCH":"2026-04-26T20:08:50.468064","MEAN_MOTION":14.14559986,"ECCENTRICITY":0.0032817,"INCLINATION":70.898,"RA_OF_ASC_NODE":292.6151,"ARG_OF_PERICENTER":307.4732,"MEAN_ANOMALY":52.3406,"EPHEMERIS_TYPE":0,"CLASSIFICATION_TYPE":"U","NORAD_CAT_ID":17973,"ELEMENT_SET_NO":999,"REV_AT_EPOCH":1039,"BSTAR":-0.0001327,"MEAN_MOTION_DOT":-3.05e-6,"MEAN_MOTION_DDOT":0},{"OBJECT_NAME":"SL-14 R/B","OBJECT_ID":"1987-055B","EPOCH":"2026-04-26T18:24:57.306816","MEAN_MOTION":14.85670058,"ECCENTRICITY":0.0019804,"INCLINATION":82.4966,"RA_OF_ASC_NODE":303.7109,"ARG_OF_PERICENTER":211.0668,"MEAN_ANOMALY":148.9379,"EPHEMERIS_TYPE":0,"CLASSIFICATION_TYPE":"U","NORAD_CAT_ID":18153,"ELEMENT_SET_NO":999,"REV_AT_EPOCH":7707,"BSTAR":5.238e-5,"MEAN_MOTION_DOT":4.79e-6,"MEAN_MOTION_DDOT":0},{"OBJECT_NAME":"COSMOS 1867","OBJECT_ID":"1987-060A","EPOCH":"2026-04-26T20:31:29.272224","MEAN_MOTION":14.31509841,"ECCENTRICITY":0.0015433,"INCLINATION":65.0097,"RA_OF_ASC_NODE":171.8164,"ARG_OF_PERICENTER":281.0458,"MEAN_ANOMALY":78.8891,"EPHEMERIS_TYPE":0,"CLASSIFICATION_TYPE":"U","NORAD_CAT_ID":18187,"ELEMENT_SET_NO":999,"REV_AT_EPOCH":2683,"BSTAR":2.5581e-5,"MEAN_MOTION_DOT":-3.2e-7,"MEAN_MOTION_DDOT":0},{"OBJECT_NAME":"SL-14 R/B","OBJECT_ID":"1988-001B","EPOCH":"2026-04-26T19:59:59.045856","MEAN_MOTION":14.85571089,"ECCENTRICITY":0.0019635,"INCLINATION":82.5122,"RA_OF_ASC_NODE":150.0885,"ARG_OF_PERICENTER":80.3064,"MEAN_ANOMALY":280.0369,"EPHEMERIS_TYPE":0,"CLASSIFICATION_TYPE":"U","NORAD_CAT_ID":18749,"ELEMENT_SET_NO":999,"REV_AT_EPOCH":4917,"BSTAR":4.0535e-5,"MEAN_MOTION_DOT":3.76e-6,"MEAN_MOTION_DDOT":0},{"OBJECT_NAME":"COSMOS 1933","OBJECT_ID":"1988-020A","EPOCH":"2026-04-26T16:56:33.978048","MEAN_MOTION":15.18399636,"ECCENTRICITY":0.0004877,"INCLINATION":82.5155,"RA_OF_ASC_NODE":203.3978,"ARG_OF_PERICENTER":50.9801,"MEAN_ANOMALY":309.1867,"EPHEMERIS_TYPE":0,"CLASSIFICATION_TYPE":"U","NORAD_CAT_ID":18958,"ELEMENT_SET_NO":999,"REV_AT_EPOCH":5751,"BSTAR":0.00022486,"MEAN_MOTION_DOT":4.654e-5,"MEAN_MOTION_DDOT":0},{"OBJECT_NAME":"SL-3 R/B","OBJECT_ID":"1988-032B","EPOCH":"2026-04-26T20:23:57.331968","MEAN_MOTION":15.20397415,"ECCENTRICITY":0.002749,"INCLINATION":97.5235,"RA_OF_ASC_NODE":99.9684,"ARG_OF_PERICENTER":67.8421,"MEAN_ANOMALY":292.5727,"EPHEMERIS_TYPE":0,"CLASSIFICATION_TYPE":"U","NORAD_CAT_ID":19046,"ELEMENT_SET_NO":999,"REV_AT_EPOCH":5942,"BSTAR":0.00024447,"MEAN_MOTION_DOT":5.309e-5,"MEAN_MOTION_DDOT":0},{"OBJECT_NAME":"SL-16 R/B","OBJECT_ID":"1988-039B","EPOCH":"2026-04-26T19:47:02.860224","MEAN_MOTION":14.1962392,"ECCENTRICITY":0.0024062,"INCLINATION":71.0152,"RA_OF_ASC_NODE":326.7685,"ARG_OF_PERICENTER":266.418,"MEAN_ANOMALY":93.4193,"EPHEMERIS_TYPE":0,"CLASSIFICATION_TYPE":"U","NORAD_CAT_ID":19120,"ELEMENT_SET_NO":999,"REV_AT_EPOCH":96521,"BSTAR":9.5438e-5,"MEAN_MOTION_DOT":1.54e-6,"MEAN_MOTION_DDOT":0},{"OBJECT_NAME":"COSMOS 1953","OBJECT_ID":"1988-050A","EPOCH":"2026-04-26T17:31:45.257088","MEAN_MOTION":15.29228233,"ECCENTRICITY":0.0009296,"INCLINATION":82.5047,"RA_OF_ASC_NODE":109.8903,"ARG_OF_PERICENTER":322.9086,"MEAN_ANOMALY":37.151,"EPHEMERIS_TYPE":0,"CLASSIFICATION_TYPE":"U","NORAD_CAT_ID":19210,"ELEMENT_SET_NO":999,"REV_AT_EPOCH":4512,"BSTAR":0.000331,"MEAN_MOTION_DOT":9.429e-5,"MEAN_MOTION_DDOT":0}]
