SL-14 R/B               
1 16496U 86006B   26116.77317247  .00000758  00000+0  77296-4 0  9994
2 16496  82.5293 214.4860 0077867 112.9411 248.0048 14.86892993156351
COSMOS 1743             
1 16719U 86034A   26116.79482789  .00053496  00000+0  59278-3 0  9995
2 16719  82.5325  23.1861 0007509 101.7350 258.4751 15.62725575187755
SL-14 R/B               
1 16792U 86046B   26116.83070054  .00000452  00000+0  49125-4 0  9997
2 16792  82.4846  34.6960 0024613  70.1969 290.1897 14.85635163133550
SL-14 R/B               
1 16882U 86055B   26116.64348071  .00000493  00000+0  53903-4 0  9997
2 16882  82.5187  81.5846 0019110 168.7588   4.4510 14.85683613126485
AJISAI (EGS)            
1 16908U 86061A   26116.83272561 -.00000082  00000+0  10785-3 0  9999
2 16908  50.0098 305.3106 0011425  50.4483  78.8564 12.44515984473996
SL-14 R/B               
1 17567U 87024B   26116.84660914  .00000447  00000+0  47948-4 0  9991
2 17567  82.5299  47.4977 0019809 100.3061 260.0390 14.86176151 95283
COSMOS 1833             
1 17589U 87027A   26116.71441694 -.00000207  00000+0 -84891-4 0  9990
2 17589  70.9163 225.0687 0022404 140.0530 220.2244 14.13033586 17102
SL-16 R/B               
1 17590U 87027B   26116.61907275  .00000213  00000+0  12948-3 0  9991
2 17590  71.0025 175.4960 0003677  24.5511 335.5787 14.17171527 22134
SL-14 R/B               
1 17912U 87038B   26116.79886480  .00000478  00000+0  52559-4 0  9990
2 17912  82.5006 251.4729 0019402  10.1913 349.9692 14.85411320 86379
COSMOS 1844             
1 17973U 87041A   26116.83947301 -.00000305  00000+0 -13270-3 0  9993
2 17973  70.8980 292.6151 0032817 307.4732  52.3406 14.14559986 10399
SL-14 R/B               
1 18153U 87055B   26116.76732994  .00000479  00000+0  52380-4 0  9997
2 18153  82.4966 303.7109 0019804 211.0668 148.9379 14.85670058 77070
COSMOS 1867             
1 18187U 87060A   26116.85519991 -.00000032  00000+0  25581-4 0  9999
2 18187  65.0097 171.8164 0015433 281.0458  78.8891 14.31509841 26832
SL-14 R/B               
1 18749U 88001B   26116.83332229  .00000376  00000+0  40535-4 0  9990
2 18749  82.5122 150.0885 0019635  80.3064 280.0369 14.85571089 49170
COSMOS 1933             
1 18958U 88020A   26116.70594882  .00004654  00000+0  22486-3 0  9991
2 18958  82.5155 203.3978 0004877  50.9801 309.1867 15.18399636 57513
SL-3 R/B                
1 19046U 88032B   26116.84996912  .00005309  00000+0  24447-3 0  9995
2 19046  97.5235  99.9684 0027490  67.8421 292.5727 15.20397415 59429
SL-16 R/B               
1 19120U 88039B   26116.82433866  .00000154  00000+0  95438-4 0  9999
2 19120  71.0152 326.7685 0024062 266.4180  93.4193 14.19623920965218
COSMOS 1953             
1 19210U 88050A   26116.73038492  .00009429  00000+0  33100-3 0  9999
2 19210  82.5047 109.8903 0009296 322.9086  37.1510 15.29228233 45123
